IRIDIUM 126             
1 42809U 17039G   23321.43642740  .00000328  00000+0  11005-3 0  9996
2 42809  86.4006  27.6255 0001919  99.7746 260.3666 14.34218376334826
IRIDIUM 124             
1 42810U 17039H   23321.77693791  .00000199  00000+0  53094-4 0  9998
2 42810  86.4468 324.2525 0002481  90.5551 269.5934 14.43285586339184
IRIDIUM 128             
1 42811U 17039J   23321.35738901  .00000394  00000+0  13367-3 0  9991
2 42811  86.3987  59.1761 0002091  98.9632 261.1801 14.34215853334844
IRIDIUM 121             
1 42812U 17039K   23321.45545732  .00000321  00000+0  10768-3 0  9993
2 42812  86.4007  27.6392 0002005  93.7564 266.3861 14.34217738334703
IRIDIUM 133             
1 42955U 17061A   23321.52865596  .00000373  00000+0  12603-3 0  9994
2 42955  86.3986  59.1991 0001854  98.4708 261.6698 14.34215746319665
IRIDIUM 100             
1 42956U 17061B   23321.52230798  .00000373  00000+0  12610-3 0  9993
2 42956  86.3984  59.1425 0002107  97.7074 262.4361 14.34218287319665
IRIDIUM 122             
1 42957U 17061C   23321.56036211  .00000371  00000+0  12534-3 0  9995
2 42957  86.3985  59.1244 0002161 102.1752 257.9686 14.34218850319676
IRIDIUM 129             
1 42958U 17061D   23321.51596767  .00000373  00000+0  12600-3 0  9994
2 42958  86.3986  59.2001 0002041 101.9003 258.2422 14.34217350319680
